[{"OBJECT_NAME":"STARLINK-32431","OBJECT_ID":"2024-175P","EPOCH":"2026-03-09T14:59:40.959168","MEAN_MOTION":15.30183964,"ECCENTRICITY":0.0001135,"INCLINATION":53.1608,"RA_OF_ASC_NODE":194.3378,"ARG_OF_PERICENTER":61.6601,"MEAN_ANOMALY":298.4514,"EPHEMERIS_TYPE":0,"CLASSIFICATION_TYPE":"U","NORAD_CAT_ID":61256,"ELEMENT_SET_NO":999,"REV_AT_EPOCH":8144,"BSTAR":7.6409e-5,"MEAN_MOTION_DOT":1.903e-5,"MEAN_MOTION_DDOT":0},{"OBJECT_NAME":"FENGYUN 1C DEB","OBJECT_ID":"1999-025DCL","EPOCH":"2026-03-08T01:32:38.043744","MEAN_MOTION":14.80481308,"ECCENTRICITY":0.0218035,"INCLINATION":98.8149,"RA_OF_ASC_NODE":16.0796,"ARG_OF_PERICENTER":161.8742,"MEAN_ANOMALY":199.0399,"EPHEMERIS_TYPE":0,"CLASSIFICATION_TYPE":"U","NORAD_CAT_ID":33603,"ELEMENT_SET_NO":999,"REV_AT_EPOCH":119,"BSTAR":0.0001936534,"MEAN_MOTION_DOT":2.149e-5,"MEAN_MOTION_DDOT":0}]
